{
  "norad_id": 64923,
  "name": "STARLINK-34643",
  "history": [
    {
      "epoch": "2026-03-28T20:23:01.279968Z",
      "apogee_km": 475.86805440447824,
      "perigee_km": 474.48176647123455,
      "latitude_deg": -3.0865215182945596e-05,
      "longitude_deg": 124.90587953916543,
      "height_km": 475.97441770236304,
      "semi_major_axis_km": 6853.311910437857,
      "eccentricity": 0.00010114,
      "inclination_deg": 53.1573,
      "raan_deg": 256.9251,
      "arg_perigee_deg": 81.8175,
      "mean_anomaly_deg": 278.294,
      "mean_motion_rev_day": 15.3021345
    },
    {
      "epoch": "2026-03-30T03:44:05.328672Z",
      "apogee_km": 475.9532466725832,
      "perigee_km": 474.39069222754915,
      "latitude_deg": -2.465466132585673e-05,
      "longitude_deg": 7.281270257864808,
      "height_km": 476.08421668261855,
      "semi_major_axis_km": 6853.308969450066,
      "eccentricity": 0.000114,
      "inclination_deg": 53.1572,
      "raan_deg": 250.8549,
      "arg_perigee_deg": 91.0478,
      "mean_anomaly_deg": 269.0653,
      "mean_motion_rev_day": 15.30214435
    },
    {
      "epoch": "2026-03-30T03:44:05.329536Z",
      "apogee_km": 475.9533837387635,
      "perigee_km": 474.39055516136887,
      "latitude_deg": -2.6499825026897882e-05,
      "longitude_deg": 7.2812652731424174,
      "height_km": 476.0842191891404,
      "semi_major_axis_km": 6853.308969450066,
      "eccentricity": 0.00011402,
      "inclination_deg": 53.1572,
      "raan_deg": 250.8549,
      "arg_perigee_deg": 91.0478,
      "mean_anomaly_deg": 269.0653,
      "mean_motion_rev_day": 15.30214435
    }
  ]
}